[{"OBJECT_NAME":"STARLINK-4451","OBJECT_ID":"2022-099AD","EPOCH":"2026-03-09T21:19:47.475552","MEAN_MOTION":15.01260357,"ECCENTRICITY":0.0002075,"INCLINATION":97.6039,"RA_OF_ASC_NODE":190.4159,"ARG_OF_PERICENTER":231.9168,"MEAN_ANOMALY":128.187,"EPHEMERIS_TYPE":0,"CLASSIFICATION_TYPE":"U","NORAD_CAT_ID":53492,"ELEMENT_SET_NO":999,"REV_AT_EPOCH":19601,"BSTAR":8.9132214e-5,"MEAN_MOTION_DOT":1.087e-5,"MEAN_MOTION_DDOT":0},{"OBJECT_NAME":"LEMUR-2-MYNAMEISJEFF","OBJECT_ID":"2025-009DH","EPOCH":"2026-03-09T16:38:25.798560","MEAN_MOTION":15.02075007,"ECCENTRICITY":0.0004441,"INCLINATION":97.7341,"RA_OF_ASC_NODE":151.959,"ARG_OF_PERICENTER":147.2142,"MEAN_ANOMALY":212.9359,"EPHEMERIS_TYPE":0,"CLASSIFICATION_TYPE":"U","NORAD_CAT_ID":62712,"ELEMENT_SET_NO":999,"REV_AT_EPOCH":6268,"BSTAR":0.00083427599,"MEAN_MOTION_DOT":0.00010906,"MEAN_MOTION_DDOT":0}]
